321P/SOHO,e,20.0550,165.0376,172.7289,2.423140,0.2612982,0.98107589,0.0000,01/17.2585/2020,2000,g 20.0,4.0
# From MPC102103
322P/SOHO,e,11.4604,351.4736,56.9307,2.508258,0.2481108,0.97977050,0.0000,08/31.4858/2019,2000,g 19.0,4.0
# From MPEC 2016-Y36
323P/SOHO,e,5.3384,324.3749,353.0511,2.582132,0.2375398,0.98484054,0.0000,01/17.7607/2021,2000,g 20.0,4.0
# From MPC108598
324P/La Sagra,e,21.4204,270.6453,57.9383,3.096503,0.1808826,0.15463719,314.0403,08/26.0/2020,2000,g 13.0,4.0
# From MPC114609
325P/Yang-Gao,e,16.6989,257.5777,343.6850,3.524090,0.1489819,0.59370678,273.5819,08/26.0/2020,2000,g 14.0,4.0
# From MPC103849
326P/Hill,e,2.4707,99.8145,278.5846,4.064387,0.1202850,0.31734059,212.9728,08/26.0/2020,2000,g 13.5,4.0
# From MPC 97499
327P/Van Ness,e,36.2444,173.9735,185.0207,3.562885,0.1465552,0.56280157,251.9012,08/26.0/2020,2000,g 16.0,4.0
# From MPC109148
328P/LONEOS-Tucker,e,17.6688,341.6221,30.4813,4.195940,0.1146727,0.55166882,195.7125,08/26.0/2020,2000,g 14.5,4.0
# From MPC101101
329P/LINEAR-Catalina,e,21.6647,87.6841,343.5520,5.192891,0.0832895,0.67685732,144.1666,08/26.0/2020,2000,g 13.5,4.0
# From MPC105243
330P/Catalina,e,15.6942,293.0958,189.0049,6.632396,0.0577030,0.54867612,84.2211,08/26.0/2020,2000,g 12.0,4.0
# From MPC110497
331P/Gibbs,e,9.7398,216.7788,183.7251,3.003325,0.1893654,0.04065930,353.4617,08/26.0/2020,2000,g 12.0,4.0
# From MPEC 2016-K18
332P/Ikeya-Murakami,e,9.3804,3.7920,152.3661,3.088286,0.1816050,0.48942383,295.0824,08/26.0/2020,2000,g 18.0,4.0
# From MPEC 2016-EI8
332P-B/Ikeya-Murakami,e,9.3805,3.8028,152.3711,3.082329,0.1821317,0.48970701,359.9699,03/17.0/2016,2000,g 19.0,4.0
# From MPEC 2016-K18
332P-C/Ikeya-Murakami,e,9.3794,3.7924,152.3574,3.088252,0.1816080,0.48942925,295.0955,08/26.0/2020,2000,g 16.5,4.0
# From MPEC 2016-ED0
332P-D/Ikeya-Murakami,e,9.3761,3.7923,152.4393,3.081138,0.1822373,0.48977814,359.9486,03/17.0/2016,2000,g 19.0,4.0
# From MPEC 2016-ED0
332P-E/Ikeya-Murakami,e,9.3774,3.8228,152.2825,3.079877,0.1823493,0.48922008,359.9889,03/17.0/2016,2000,g 21.0,4.0
# From MPEC 2016-ED0
332P-F/Ikeya-Murakami,e,9.5293,3.4757,152.8203,3.163214,0.1751908,0.49918860,359.8501,03/17.0/2016,2000,g 21.0,4.0
# From MPEC 2016-ED0
332P-G/Ikeya-Murakami,e,9.2523,3.6955,154.4000,3.050519,0.1849880,0.49200362,359.9006,03/19.0/2016,2000,g 19.0,4.0
# From MPC100285
332P-H/Ikeya-Murakami,e,9.3800,3.7921,152.3581,3.088435,0.1815918,0.48946440,295.0362,08/26.0/2020,2000,g 19.0,4.0
# From MPEC 2016-ED0
332P-I/Ikeya-Murakami,e,9.3791,3.8048,152.3297,3.081767,0.1821815,0.48955490,359.9360,03/17.0/2016,2000,g 20.5,2.0
# From MPEC 2016-EI8
332P-J/Ikeya-Murakami,e,9.4296,3.6729,152.7712,3.115165,0.1792596,0.49429435,359.8613,03/17.0/2016,2000,g 20.5,2.0
# From MPEC 2020-L06
333P/LINEAR,e,131.9822,115.6271,26.0385,4.219270,0.1137229,0.73654417,182.8507,08/26.0/2020,2000,g 15.0,4.0
# From MPC115888
334P/NEAT,e,20.4807,90.7315,89.8807,6.837415,0.0551272,0.35358193,64.7277,08/26.0/2020,2000,g 10.5,4.0
# From MPC100285
335P/Gibbs,e,7.2917,330.8432,162.2356,3.578912,0.1455719,0.54526546,255.7111,08/26.0/2020,2000,g 17.0,4.0
# From MPC105244
336P/McNaught,e,17.8341,298.2255,308.7327,5.030484,0.0873553,0.44558653,113.5523,08/26.0/2020,2000,g 13.5,4.0
# From MPC115888
337P/WISE,e,15.3738,106.0719,160.9826,3.287674,0.1653373,0.49691023,248.5706,08/26.0/2020,2000,g 17.0,4.0
# From MPC104796
338P/McNaught,e,25.3710,9.7867,4.3964,3.898270,0.1280549,0.41104677,175.7815,08/26.0/2020,2000,g 12.0,4.0
# From MPC101101
339P/Gibbs,e,5.7354,172.7460,27.5253,3.695631,0.1387302,0.63585357,207.3928,08/26.0/2020,2000,g 17.0,4.0
# From MPC102957
340P/Boattini,e,2.0797,291.7281,35.7925,4.251570,0.1124294,0.28061702,154.6205,08/26.0/2020,2000,g 13.0,4.0
# From MPC109148
341P/Gibbs,e,3.7947,29.9959,312.1139,4.294493,0.1107481,0.41513019,171.7488,08/26.0/2020,2000,g 12.5,4.0
# From MPC101101
342P/SOHO,e,11.7637,30.2172,70.8900,3.044080,0.1855752,0.98316501,0.0000,10/19.0815/2021,2000,g  9.0,4.0
# From MPC109148
343P/NEAT-LONEOS,e,5.5832,257.2344,137.3723,5.462015,0.0772102,0.58377413,100.8514,08/26.0/2020,2000,g 14.0,4.0
# From MPC109148
344P/Read,e,3.4903,273.1896,140.4068,4.867625,0.0917758,0.42149413,127.9860,08/26.0/2020,2000,g 13.0,4.0
# From MPC109148
345P/LINEAR,e,2.7266,154.4993,196.3508,4.040220,0.1213659,0.22062298,182.2244,08/26.0/2020,2000,g 12.0,4.0
# From MPC110086
346P/Catalina,e,22.1853,102.4689,336.0151,4.476609,0.1040592,0.50229930,134.1405,08/26.0/2020,2000,g 14.0,4.0
# From MPC108599
347P/PANSTARRS,e,11.7479,261.0436,98.2964,3.607164,0.1438650,0.38539298,207.7372,08/26.0/2020,2000,g 15.0,4.0
# From MPC104796
348P/PANSTARRS,e,17.7375,312.9393,135.4078,3.154137,0.1759476,0.30651315,265.8741,08/26.0/2020,2000,g 14.0,4.0
# From MPC112394
349P/Lemmon,e,5.4910,331.7482,256.0520,3.572068,0.1459905,0.29940004,159.9865,08/26.0/2020,2000,g 14.0,4.0
# From MPC111775
350P/McNaught,e,7.3563,65.3862,140.8677,4.096740,0.1188629,0.09080616,116.5638,08/26.0/2020,2000,g 14.0,4.0
# From MPC105244
351P/Wiegert-PANSTARRS,e,12.7905,283.4493,352.6280,4.436899,0.1054593,0.29612529,183.7294,08/26.0/2020,2000,g 12.5,4.0
# From MPC110086
352P/Skiff,e,21.0090,28.0990,309.1314,6.634922,0.0576700,0.61812581,66.9438,08/26.0/2020,2000,g 11.5,4.0
# From MPEC 2020-AA5
353P/McNaught,e,28.4254,121.5630,230.3718,4.171479,0.1156829,0.46987550,113.2093,08/26.0/2020,2000,g 14.5,4.0
# From MPC105545
354P/LINEAR,e,5.2555,320.1290,133.0499,2.290003,0.2844134,0.12566142,34.2827,08/26.0/2020,2000,g 15.5,4.0
# From MPEC 2020-AA5
355P/LINEAR-NEAT,e,11.0357,51.4410,336.2493,3.472687,0.1523020,0.50680778,159.6535,08/26.0/2020,2000,g 15.5,2.0
# From MPC109148
356P/WISE,e,9.6350,160.7897,226.0262,4.160898,0.1161244,0.35460805,114.1543,08/26.0/2020,2000,g 14.0,4.0
# From MPC114609
357P/Hill,e,6.3097,44.5829,1.4238,4.462058,0.1045686,0.43445665,85.7703,08/26.0/2020,2000,g 15.5,4.0
# From MPEC 2020-HN5
358P/PANSTARRS,e,11.0571,85.7153,299.7356,3.148554,0.1764157,0.23808671,153.0580,08/26.0/2020,2000,g 18.0,4.0
# From MPC110086
359P/LONEOS,e,10.2652,149.7583,200.1255,4.639463,0.0986285,0.32388758,108.5892,08/26.0/2020,2000,g 13.5,4.0
# From MPC108599
360P/WISE,e,24.0958,2.1937,354.1126,3.702984,0.1383173,0.49858736,152.5747,08/26.0/2020,2000,g 19.5,6.0
# From MPC114609
361P/Spacewatch,e,13.8870,203.2546,219.1061,4.940691,0.0897475,0.43778836,70.5302,08/26.0/2020,2000,g 12.0,4.0
# From MPEC 2017-V13
362P/,e,15.5589,192.5871,53.6837,3.967622,0.1247121,0.27988484,182.4621,08/26.0/2020,2000,g 12.9,2.0
# From MPC114609
363P/Lemmon,e,5.0364,149.5601,338.3248,3.505607,0.1501618,0.54553148,132.8362,08/26.0/2020,2000,g 17.5,4.0
# From MPC114609
364P/PANSTARRS,e,12.1460,46.2092,211.9842,2.878857,0.2017780,0.72246095,160.1346,08/26.0/2020,2000,g 17.0,2.0
# From MPC111775
365P/PANSTARRS,e,9.8362,87.4036,66.2168,3.179289,0.1738638,0.57530009,161.1253,08/26.0/2020,2000,g 17.0,4.0
# From MPC114610
366P/Spacewatch,e,8.8595,70.7542,153.1683,3.495577,0.1508085,0.34849882,115.6537,08/26.0/2020,2000,g 15.0,4.0
# From MPC112395
367P/Catalina,e,8.4635,58.7164,172.9259,3.505199,0.1501879,0.28053699,119.6487,08/26.0/2020,2000,g 17.5,2.0
# From MPC114610
368P/NEAT,e,15.4832,257.9668,118.7762,5.526564,0.0758615,0.62615664,53.9853,08/26.0/2020,2000,g 14.0,4.0
# From MPC114610
369P/Hill,e,10.3104,47.3043,13.2118,4.386027,0.1072993,0.55417363,73.0668,08/26.0/2020,2000,g 15.0,4.0
# From MPC114610
370P/NEAT,e,19.3996,55.1389,356.7007,6.436864,0.0603521,0.61435264,48.8026,08/26.0/2020,2000,g 13.0,4.0
# From MPC114610
371P/LINEAR-Skiff,e,17.3775,67.3218,308.4508,4.181389,0.1152718,0.47637678,79.6894,08/26.0/2020,2000,g 16.0,4.0
# From MPEC 2020-K19
372P/McNaught,e,9.5097,325.8192,27.1547,4.502631,0.1031584,0.15256979,69.6432,08/26.0/2020,2000,g 13.5,4.0
# From MPC114610
373P/Rinner,e,13.7588,231.9501,221.1487,3.805031,0.1327904,0.39217514,67.0701,08/26.0/2020,2000,g 14.5,4.0
# From MPC114610
374P/Larson,e,10.7605,7.9149,51.5344,4.975188,0.0888157,0.46231035,52.6967,08/26.0/2020,2000,g 14.0,4.0
# From MPC114610
375P/Hill,e,17.3616,359.9473,119.4739,5.559455,0.0751893,0.65882463,46.1448,08/26.0/2020,2000,g 16.0,4.0
# From MPEC 2020-K19
376P/LONEOS,e,1.1938,314.8336,285.2567,5.869882,0.0693043,0.51829043,23.0352,08/26.0/2020,2000,g 12.5,4.0
# From MPC115888
377P/Scotti,e,9.0224,226.0593,354.9849,6.712850,0.0566687,0.25267093,2.5812,08/26.0/2020,2000,g  9.5,4.0
# From MPEC 2019-TG9
378P/McNaught,e,19.1039,94.5174,194.0987,6.374935,0.0612337,0.46967287,356.5606,08/26.0/2020,2000,g 12.0,4.0
# From MPC115889
379P/Spacewatch,e,12.3912,183.9147,31.2425,3.528062,0.1487304,0.33909804,58.0756,08/26.0/2020,2000,g 15.0,4.0
# From MPEC 2020-KB7
380P/PANSTARRS,e,8.2609,132.9796,89.9489,4.544737,0.1017281,0.33032963,45.4231,08/26.0/2020,2000,g 12.5,4.0
# From MPEC 2019-TG9
381P/LINEAR-Spacewatch,e,28.3751,173.7847,173.1209,7.117351,0.0519071,0.68167112,17.3398,08/26.0/2020,2000,g 17.5,2.0
# From MPC115889
382P/Larson,e,7.6858,177.0532,174.2037,6.243980,0.0631701,0.29936933,322.4171,08/26.0/2020,2000,g  8.0,4.0
# From MPC118844
383P/Christensen,e,12.3213,207.8912,133.6387,3.544147,0.1477190,0.59953373,45.0193,08/26.0/2020,2000,g 18.0,4.0
# From MPEC 2020-C98
384P/Kowalski,e,7.2821,354.2263,37.6387,2.901527,0.1994179,0.61536033,63.7291,08/26.0/2020,2000,g 19.5,4.0
# From MPEC 2020-C98
385P/Hill,e,16.8268,357.0689,44.3296,4.288036,0.1109983,0.40127491,38.4294,08/26.0/2020,2000,g 13.0,4.0
# From MPEC 2020-C98
386P/PANSTARRS,e,15.2294,134.9477,353.2581,4.058323,0.1205547,0.41644099,0.7974,08/26.0/2020,2000,g 14.5,4.0
# From MPEC 2020-C98
387P/Boattini,e,8.9171,259.3352,162.7851,4.800400,0.0937104,0.73597968,33.2514,08/26.0/2020,2000,g 15.0,4.0
# From MPEC 2020-HN5
388P/Gibbs,e,23.8610,37.0485,42.3966,5.246663,0.0820124,0.61795612,32.7587,08/26.0/2020,2000,g 13.0,4.0
# From MPC118845
389P/Siding Spring,e,160.0653,218.8502,249.2879,5.626960,0.0738403,0.70444120,17.7772,08/26.0/2020,2000,g 16.0,4.0
# From MPEC 2020-C98
